[{"OBJECT_NAME":"NUSAT-50 (NANCY ROMAN)","OBJECT_ID":"2024-149AB","EPOCH":"2026-03-09T19:15:16.765632","MEAN_MOTION":15.29713355,"ECCENTRICITY":0.00025229,"INCLINATION":97.3817,"RA_OF_ASC_NODE":150.7693,"ARG_OF_PERICENTER":238.0469,"MEAN_ANOMALY":122.0527,"EPHEMERIS_TYPE":0,"CLASSIFICATION_TYPE":"U","NORAD_CAT_ID":60493,"ELEMENT_SET_NO":999,"REV_AT_EPOCH":8693,"BSTAR":0.0004225155,"MEAN_MOTION_DOT":0.00012094,"MEAN_MOTION_DDOT":0},{"OBJECT_NAME":"STARLINK-35872","OBJECT_ID":"2025-268Z","EPOCH":"2026-03-09T02:47:27.140640","MEAN_MOTION":15.27576929,"ECCENTRICITY":0.00020393,"INCLINATION":43.0025,"RA_OF_ASC_NODE":350.1632,"ARG_OF_PERICENTER":253.0464,"MEAN_ANOMALY":107.0164,"EPHEMERIS_TYPE":0,"CLASSIFICATION_TYPE":"U","NORAD_CAT_ID":66580,"ELEMENT_SET_NO":999,"REV_AT_EPOCH":1787,"BSTAR":0.001933689,"MEAN_MOTION_DOT":0.0005333,"MEAN_MOTION_DDOT":0}]
